CCSDS_OMM_VERS = 2.0
CREATION_DATE  = 
ORIGINATOR     = 

OBJECT_NAME    = YOTSUBA-KULOVER
OBJECT_ID      = 1998-067XN
CENTER_NAME    = EARTH
REF_FRAME      = TEME
TIME_SYSTEM    = UTC
MEAN_ELEMENT_THEORY = SGP/SGP4

EPOCH          = 2026-03-07T23:57:18.245376
MEAN_MOTION    = 15.79713118
ECCENTRICITY   = .00057511
INCLINATION    = 51.6208
RA_OF_ASC_NODE = 66.0612
ARG_OF_PERICENTER = 56.1865
MEAN_ANOMALY   = 303.9683

EPHEMERIS_TYPE = 0
CLASSIFICATION_TYPE = U
NORAD_CAT_ID   = 65941
ELEMENT_SET_NO = 999
REV_AT_EPOCH   = 2323
BSTAR          = .13632217E-2
MEAN_MOTION_DOT = .263045E-2
MEAN_MOTION_DDOT = 0

CCSDS_OMM_VERS = 2.0
CREATION_DATE  = 
ORIGINATOR     = 

OBJECT_NAME    = E-KAGAKU-1
OBJECT_ID      = 1998-067XQ
CENTER_NAME    = EARTH
REF_FRAME      = TEME
TIME_SYSTEM    = UTC
MEAN_ELEMENT_THEORY = SGP/SGP4

EPOCH          = 2026-03-08T00:03:11.699136
MEAN_MOTION    = 15.79385798
ECCENTRICITY   = .0006105
INCLINATION    = 51.6232
RA_OF_ASC_NODE = 66.1066
ARG_OF_PERICENTER = 62.9962
MEAN_ANOMALY   = 297.1662

EPHEMERIS_TYPE = 0
CLASSIFICATION_TYPE = U
NORAD_CAT_ID   = 65943
ELEMENT_SET_NO = 999
REV_AT_EPOCH   = 2323
BSTAR          = .13328E-2
MEAN_MOTION_DOT = .253093E-2
MEAN_MOTION_DDOT = 0

CCSDS_OMM_VERS = 2.0
CREATION_DATE  = 
ORIGINATOR     = 

OBJECT_NAME    = HRC MONOBLOCK CAMERA
OBJECT_ID      = 1998-067XR
CENTER_NAME    = EARTH
REF_FRAME      = TEME
TIME_SYSTEM    = UTC
MEAN_ELEMENT_THEORY = SGP/SGP4

EPOCH          = 2026-03-08T00:53:20.427072
MEAN_MOTION    = 15.61987502
ECCENTRICITY   = .0003626
INCLINATION    = 51.6270
RA_OF_ASC_NODE = 73.8727
ARG_OF_PERICENTER = 83.9144
MEAN_ANOMALY   = 276.2263

EPHEMERIS_TYPE = 0
CLASSIFICATION_TYPE = U
NORAD_CAT_ID   = 66052
ELEMENT_SET_NO = 999
REV_AT_EPOCH   = 2213
BSTAR          = .78141E-3
MEAN_MOTION_DOT = .69622E-3
MEAN_MOTION_DDOT = 0

CCSDS_OMM_VERS = 2.0
CREATION_DATE  = 
ORIGINATOR     = 

OBJECT_NAME    = HTV-X1
OBJECT_ID      = 2025-241A
CENTER_NAME    = EARTH
REF_FRAME      = TEME
TIME_SYSTEM    = UTC
MEAN_ELEMENT_THEORY = SGP/SGP4

EPOCH          = 2026-03-07T18:30:03.892896
MEAN_MOTION    = 15.48514260
ECCENTRICITY   = .00081173
INCLINATION    = 51.6320
RA_OF_ASC_NODE = 81.8427
ARG_OF_PERICENTER = 167.9196
MEAN_ANOMALY   = 192.1989

EPHEMERIS_TYPE = 0
CLASSIFICATION_TYPE = U
NORAD_CAT_ID   = 66174
ELEMENT_SET_NO = 999
REV_AT_EPOCH   = 55447
BSTAR          = .26707368E-3
MEAN_MOTION_DOT = .14056E-3
MEAN_MOTION_DDOT = 0

CCSDS_OMM_VERS = 2.0
CREATION_DATE  = 
ORIGINATOR     = 

OBJECT_NAME    = SZ-21 MODULE
OBJECT_ID      = 2025-246C
CENTER_NAME    = EARTH
REF_FRAME      = TEME
TIME_SYSTEM    = UTC
MEAN_ELEMENT_THEORY = SGP/SGP4

EPOCH          = 2026-03-07T11:06:32.685984
MEAN_MOTION    = 15.68341086
ECCENTRICITY   = .00014291
INCLINATION    = 41.4737
RA_OF_ASC_NODE = 217.0662
ARG_OF_PERICENTER = 294.3949
MEAN_ANOMALY   = 65.6744

EPHEMERIS_TYPE = 0
CLASSIFICATION_TYPE = U
NORAD_CAT_ID   = 66515
ELEMENT_SET_NO = 999
REV_AT_EPOCH   = 1772
BSTAR          = .43322838E-3
MEAN_MOTION_DOT = .50102E-3
MEAN_MOTION_DDOT = 0

CCSDS_OMM_VERS = 2.0
CREATION_DATE  = 
ORIGINATOR     = 

OBJECT_NAME    = SHENZHOU-22
OBJECT_ID      = 2025-272A
CENTER_NAME    = EARTH
REF_FRAME      = TEME
TIME_SYSTEM    = UTC
MEAN_ELEMENT_THEORY = SGP/SGP4

EPOCH          = 2026-03-07T20:38:02.311872
MEAN_MOTION    = 15.60551672
ECCENTRICITY   = .00069782
INCLINATION    = 41.4662
RA_OF_ASC_NODE = 219.2951
ARG_OF_PERICENTER = 261.9619
MEAN_ANOMALY   = 98.0428

EPHEMERIS_TYPE = 0
CLASSIFICATION_TYPE = U
NORAD_CAT_ID   = 66645
ELEMENT_SET_NO = 999
REV_AT_EPOCH   = 26752
BSTAR          = .34884596E-3
MEAN_MOTION_DOT = .29436E-3
MEAN_MOTION_DDOT = 0

CCSDS_OMM_VERS = 2.0
CREATION_DATE  = 
ORIGINATOR     = 

OBJECT_NAME    = SOYUZ-MS 28
OBJECT_ID      = 2025-275A
CENTER_NAME    = EARTH
REF_FRAME      = TEME
TIME_SYSTEM    = UTC
MEAN_ELEMENT_THEORY = SGP/SGP4

EPOCH          = 2026-03-07T18:30:03.892896
MEAN_MOTION    = 15.48514260
ECCENTRICITY   = .00081173
INCLINATION    = 51.6320
RA_OF_ASC_NODE = 81.8427
ARG_OF_PERICENTER = 167.9196
MEAN_ANOMALY   = 192.1989

EPHEMERIS_TYPE = 0
CLASSIFICATION_TYPE = U
NORAD_CAT_ID   = 66664
ELEMENT_SET_NO = 999
REV_AT_EPOCH   = 55452
BSTAR          = .26707368E-3
MEAN_MOTION_DOT = .14056E-3
MEAN_MOTION_DDOT = 0

CCSDS_OMM_VERS = 2.0
CREATION_DATE  = 
ORIGINATOR     = 

OBJECT_NAME    = DUPLEX
OBJECT_ID      = 1998-067XS
CENTER_NAME    = EARTH
REF_FRAME      = TEME
TIME_SYSTEM    = UTC
MEAN_ELEMENT_THEORY = SGP/SGP4

EPOCH          = 2026-03-07T06:34:54.012864
MEAN_MOTION    = 15.56027322
ECCENTRICITY   = .0002224
INCLINATION    = 51.6285
RA_OF_ASC_NODE = 81.5298
ARG_OF_PERICENTER = 101.9633
MEAN_ANOMALY   = 258.1608

EPHEMERIS_TYPE = 0
CLASSIFICATION_TYPE = U
NORAD_CAT_ID   = 66906
ELEMENT_SET_NO = 999
REV_AT_EPOCH   = 1475
BSTAR          = .56716E-3
MEAN_MOTION_DOT = .39972E-3
MEAN_MOTION_DDOT = 0

CCSDS_OMM_VERS = 2.0
CREATION_DATE  = 
ORIGINATOR     = 

OBJECT_NAME    = ISS OBJECT XT
OBJECT_ID      = 1998-067XT
CENTER_NAME    = EARTH
REF_FRAME      = TEME
TIME_SYSTEM    = UTC
MEAN_ELEMENT_THEORY = SGP/SGP4

EPOCH          = 2026-03-07T10:00:34.337376
MEAN_MOTION    = 15.68423465
ECCENTRICITY   = .0004673
INCLINATION    = 51.6248
RA_OF_ASC_NODE = 77.2205
ARG_OF_PERICENTER = 64.6105
MEAN_ANOMALY   = 295.5375

EPHEMERIS_TYPE = 0
CLASSIFICATION_TYPE = U
NORAD_CAT_ID   = 66907
ELEMENT_SET_NO = 999
REV_AT_EPOCH   = 1482
BSTAR          = .16435274E-2
MEAN_MOTION_DOT = .193086E-2
MEAN_MOTION_DDOT = 0

CCSDS_OMM_VERS = 2.0
CREATION_DATE  = 
ORIGINATOR     = 

OBJECT_NAME    = ISS OBJECT XU
OBJECT_ID      = 1998-067XU
CENTER_NAME    = EARTH
REF_FRAME      = TEME
TIME_SYSTEM    = UTC
MEAN_ELEMENT_THEORY = SGP/SGP4

EPOCH          = 2026-03-08T01:15:35.047008
MEAN_MOTION    = 15.68767793
ECCENTRICITY   = .0004942
INCLINATION    = 51.6241
RA_OF_ASC_NODE = 73.9603
ARG_OF_PERICENTER = 70.0381
MEAN_ANOMALY   = 290.1148

EPHEMERIS_TYPE = 0
CLASSIFICATION_TYPE = U
NORAD_CAT_ID   = 66908
ELEMENT_SET_NO = 999
REV_AT_EPOCH   = 1492
BSTAR          = .16177E-2
MEAN_MOTION_DOT = .19275E-2
MEAN_MOTION_DDOT = 0

CCSDS_OMM_VERS = 2.0
CREATION_DATE  = 
ORIGINATOR     = 

OBJECT_NAME    = SILVERSAT
OBJECT_ID      = 1998-067XV
CENTER_NAME    = EARTH
REF_FRAME      = TEME
TIME_SYSTEM    = UTC
MEAN_ELEMENT_THEORY = SGP/SGP4

EPOCH          = 2026-03-07T07:02:35.366496
MEAN_MOTION    = 15.71158496
ECCENTRICITY   = .0005453
INCLINATION    = 51.6247
RA_OF_ASC_NODE = 77.1411
ARG_OF_PERICENTER = 60.9415
MEAN_ANOMALY   = 299.2128

EPHEMERIS_TYPE = 0
CLASSIFICATION_TYPE = U
NORAD_CAT_ID   = 66909
ELEMENT_SET_NO = 999
REV_AT_EPOCH   = 1481
BSTAR          = .19116E-2
MEAN_MOTION_DOT = .253597E-2
MEAN_MOTION_DDOT = 0

CCSDS_OMM_VERS = 2.0
CREATION_DATE  = 
ORIGINATOR     = 

OBJECT_NAME    = ISS OBJECT XW
OBJECT_ID      = 1998-067XW
CENTER_NAME    = EARTH
REF_FRAME      = TEME
TIME_SYSTEM    = UTC
MEAN_ELEMENT_THEORY = SGP/SGP4

EPOCH          = 2026-03-08T01:09:40.069152
MEAN_MOTION    = 15.68050073
ECCENTRICITY   = .0005095
INCLINATION    = 51.6238
RA_OF_ASC_NODE = 73.9282
ARG_OF_PERICENTER = 75.6439
MEAN_ANOMALY   = 284.5122

EPHEMERIS_TYPE = 0
CLASSIFICATION_TYPE = U
NORAD_CAT_ID   = 66910
ELEMENT_SET_NO = 999
REV_AT_EPOCH   = 1492
BSTAR          = .15106E-2
MEAN_MOTION_DOT = .174342E-2
MEAN_MOTION_DDOT = 0

